[{"OBJECT_NAME":"LMRST-SAT","OBJECT_ID":"2015-058H","EPOCH":"2026-03-09T17:22:48.893664","MEAN_MOTION":14.89988841,"ECCENTRICITY":0.01310128,"INCLINATION":64.7755,"RA_OF_ASC_NODE":224.0879,"ARG_OF_PERICENTER":97.8444,"MEAN_ANOMALY":263.7563,"EPHEMERIS_TYPE":0,"CLASSIFICATION_TYPE":"U","NORAD_CAT_ID":40971,"ELEMENT_SET_NO":999,"REV_AT_EPOCH":9873,"BSTAR":0.00042420191,"MEAN_MOTION_DOT":4.653e-5,"MEAN_MOTION_DDOT":0},{"OBJECT_NAME":"IRIDE FM4","OBJECT_ID":"2025-276AJ","EPOCH":"2026-03-09T18:15:25.902144","MEAN_MOTION":15.18565498,"ECCENTRICITY":0.00038717,"INCLINATION":97.4251,"RA_OF_ASC_NODE":143.9634,"ARG_OF_PERICENTER":14.8227,"MEAN_ANOMALY":345.312,"EPHEMERIS_TYPE":0,"CLASSIFICATION_TYPE":"U","NORAD_CAT_ID":66698,"ELEMENT_SET_NO":999,"REV_AT_EPOCH":1532,"BSTAR":0.00040962918,"MEAN_MOTION_DOT":8.403e-5,"MEAN_MOTION_DDOT":0}]
